start=new Date('2022-07-31T00:00:00.000Z').valueOf();
sats=[{"TIME_SYSTEM":"UTC","PERIAPSIS":"538.377","ARG_OF_PERICENTER":"43.4601","MEAN_ELEMENT_THEORY":"SGP4","PERIOD":"95.439","MEAN_MOTION_DOT":"0.00022090","GP_ID":"209230266","MEAN_MOTION":"15.08812090","FILE":"3525638","REV_AT_EPOCH":"130","APOAPSIS":"541.285","RA_OF_ASC_NODE":"214.8330","ELEMENT_SET_NO":"999","CLASSIFICATION_TYPE":"U","LAUNCH_DATE":"2022-05-06","COUNTRY_CODE":"US","MEAN_MOTION_DDOT":"0.0000000000000","CENTER_NAME":"EARTH","OBJECT_TYPE":"PAYLOAD","OBJECT_NAME":"STARLINK-3864","EPHEMERIS_TYPE":"0","TLE_LINE2":"2 52468  53.2135 214.8330 0002102  43.4601 208.8103 15.08812090  1300","ECCENTRICITY":"0.00021020","DECAY_DATE":null,"TLE_LINE1":"1 52468U 22049T   22211.91667824  .00022090  00000-0  14027-2 0  9992","OBJECT_ID":"2022-049T","BSTAR":"0.00140270000000","EPOCH":"2022-07-30T22:00:00.999936","NORAD_CAT_ID":"52468","SEMIMAJOR_AXIS":"6917.966","INCLINATION":"53.2135","MEAN_ANOMALY":"208.8103","SITE":"AFETR","RCS_SIZE":"LARGE","REF_FRAME":"TEME"},{"SEMIMAJOR_AXIS":"6917.969","NORAD_CAT_ID":"52469","EPOCH":"2022-07-30T22:00:00.999936","BSTAR":"0.00222740000000","OBJECT_ID":"2022-049U","TLE_LINE1":"1 52469U 22049R   22211.91667824  .00035312  00000-0  22274-2 0  9997","DECAY_DATE":null,"ECCENTRICITY":"0.00021980","REF_FRAME":"TEME","SITE":"AFETR","RCS_SIZE":"LARGE","MEAN_ANOMALY":"168.2273","INCLINATION":"53.2137","CLASSIFICATION_TYPE":"U","LAUNCH_DATE":"2022-05-06","ELEMENT_SET_NO":"999","RA_OF_ASC_NODE":"214.8319","APOAPSIS":"541.355","GP_ID":"209229626","FILE":"3525638","MEAN_MOTION":"15.08811013","REV_AT_EPOCH":"130","MEAN_ELEMENT_THEORY":"SGP4","PERIOD":"95.439","MEAN_MOTION_DOT":"0.00035312","ARG_OF_PERICENTER":"44.0013","PERIAPSIS":"538.313","TIME_SYSTEM":"UTC","TLE_LINE2":"2 52469  53.2137 214.8319 0002198  44.0013 168.2273 15.08811013  1300","EPHEMERIS_TYPE":"0","OBJECT_NAME":"STARLINK-3828","OBJECT_TYPE":"PAYLOAD","CENTER_NAME":"EARTH","COUNTRY_CODE":"US","MEAN_MOTION_DDOT":"0.0000000000000"},{"ARG_OF_PERICENTER":"55.0190","PERIAPSIS":"538.501","TIME_SYSTEM":"UTC","GP_ID":"209230394","MEAN_MOTION":"15.08803994","FILE":"3525638","REV_AT_EPOCH":"130","MEAN_MOTION_DOT":"0.00040468","PERIOD":"95.440","MEAN_ELEMENT_THEORY":"SGP4","RA_OF_ASC_NODE":"214.8256","APOAPSIS":"541.210","CLASSIFICATION_TYPE":"U","LAUNCH_DATE":"2022-05-06","ELEMENT_SET_NO":"999","COUNTRY_CODE":"US","MEAN_MOTION_DDOT":"0.0000000000000","CENTER_NAME":"EARTH","EPHEMERIS_TYPE":"0","OBJECT_NAME":"STARLINK-3859","OBJECT_TYPE":"PAYLOAD","TLE_LINE2":"2 52470  53.2146 214.8256 0001958  55.0190 237.1957 15.08803994  1307","TLE_LINE1":"1 52470U 22049V   22211.91667824  .00040468  00000-0  25487-2 0  9996","DECAY_DATE":null,"ECCENTRICITY":"0.00019580","SEMIMAJOR_AXIS":"6917.990","NORAD_CAT_ID":"52470","BSTAR":"0.00254870000000","EPOCH":"2022-07-30T22:00:00.999936","OBJECT_ID":"2022-049V","MEAN_ANOMALY":"237.1957","INCLINATION":"53.2146","SITE":"AFETR","RCS_SIZE":"LARGE","REF_FRAME":"TEME"},{"OBJECT_NAME":"STARLINK-3862","EPHEMERIS_TYPE":"0","OBJECT_TYPE":"PAYLOAD","TLE_LINE2":"2 52471  53.2132 214.8333 0002261  53.7729 178.4583 15.08826016  1302","COUNTRY_CODE":"US","MEAN_MOTION_DDOT":"0.0000000000000","CENTER_NAME":"EARTH","APOAPSIS":"541.352","RA_OF_ASC_NODE":"214.8333","LAUNCH_DATE":"2022-05-06","CLASSIFICATION_TYPE":"U","ELEMENT_SET_NO":"999","PERIAPSIS":"538.224","ARG_OF_PERICENTER":"53.7729","TIME_SYSTEM":"UTC","GP_ID":"209230138","FILE":"3525638","MEAN_MOTION":"15.08826016","REV_AT_EPOCH":"130","MEAN_ELEMENT_THEORY":"SGP4","PERIOD":"95.438","MEAN_MOTION_DOT":"0.00036472","REF_FRAME":"TEME","MEAN_ANOMALY":"178.4583","INCLINATION":"53.2132","RCS_SIZE":"LARGE","SITE":"AFETR","TLE_LINE1":"1 52471U 22049W   22211.91667824  .00036472  00000-0  22987-2 0  9999","ECCENTRICITY":"0.00022610","DECAY_DATE":null,"NORAD_CAT_ID":"52471","SEMIMAJOR_AXIS":"6917.923","OBJECT_ID":"2022-049W","BSTAR":"0.00229870000000","EPOCH":"2022-07-30T22:00:00.999936"},{"CLASSIFICATION_TYPE":"U","LAUNCH_DATE":"2022-05-06","ELEMENT_SET_NO":"999","RA_OF_ASC_NODE":"214.8198","APOAPSIS":"541.068","FILE":"3525638","GP_ID":"209229883","REV_AT_EPOCH":"130","MEAN_MOTION":"15.08817759","PERIOD":"95.439","MEAN_MOTION_DOT":"0.00041999","MEAN_ELEMENT_THEORY":"SGP4","ARG_OF_PERICENTER":"52.5900","PERIAPSIS":"538.558","TIME_SYSTEM":"UTC","TLE_LINE2":"2 52472  53.2150 214.8198 0001814  52.5900 259.6006 15.08817759  1309","EPHEMERIS_TYPE":"0","OBJECT_NAME":"STARLINK-3881","OBJECT_TYPE":"PAYLOAD","CENTER_NAME":"EARTH","COUNTRY_CODE":"US","MEAN_MOTION_DDOT":"0.0000000000000","SEMIMAJOR_AXIS":"6917.948","NORAD_CAT_ID":"52472","BSTAR":"0.00264290000000","EPOCH":"2022-07-30T22:00:00.999936","OBJECT_ID":"2022-049X","TLE_LINE1":"1 52472U 22049X   22211.91667824  .00041999  00000-0  26429-2 0  9995","DECAY_DATE":null,"ECCENTRICITY":"0.00018140","REF_FRAME":"TEME","SITE":"AFETR","RCS_SIZE":"LARGE","MEAN_ANOMALY":"259.6006","INCLINATION":"53.2150"},{"TLE_LINE2":"2 52473  53.2143 214.8335 0002078  47.6056 224.6205 15.08799165  1308","EPHEMERIS_TYPE":"0","OBJECT_NAME":"STARLINK-3879","OBJECT_TYPE":"PAYLOAD","CENTER_NAME":"EARTH","COUNTRY_CODE":"US","MEAN_MOTION_DDOT":"0.0000000000000","CLASSIFICATION_TYPE":"U","LAUNCH_DATE":"2022-05-06","ELEMENT_SET_NO":"999","RA_OF_ASC_NODE":"214.8335","APOAPSIS":"541.308","GP_ID":"209230011","FILE":"3525638","REV_AT_EPOCH":"130","MEAN_MOTION":"15.08799165","MEAN_MOTION_DOT":"0.00038987","PERIOD":"95.440","MEAN_ELEMENT_THEORY":"SGP4","ARG_OF_PERICENTER":"47.6056","PERIAPSIS":"538.433","TIME_SYSTEM":"UTC","REF_FRAME":"TEME","RCS_SIZE":"LARGE","SITE":"AFETR","MEAN_ANOMALY":"224.6205","INCLINATION":"53.2143","SEMIMAJOR_AXIS":"6918.005","NORAD_CAT_ID":"52473","EPOCH":"2022-07-30T22:00:00.999936","BSTAR":"0.00245690000000","OBJECT_ID":"2022-049Y","TLE_LINE1":"1 52473U 22049Y   22211.91667824  .00038987  00000-0  24569-2 0  9992","ECCENTRICITY":"0.00020780","DECAY_DATE":null},{"PERIAPSIS":"466.233","ARG_OF_PERICENTER":"45.1510","TIME_SYSTEM":"UTC","GP_ID":"209230523","REV_AT_EPOCH":"130","FILE":"3525638","MEAN_MOTION":"15.32844631","PERIOD":"93.943","MEAN_ELEMENT_THEORY":"SGP4","MEAN_MOTION_DOT":"-0.01067494","APOAPSIS":"468.431","RA_OF_ASC_NODE":"205.7713","CLASSIFICATION_TYPE":"U","LAUNCH_DATE":"2022-05-06","ELEMENT_SET_NO":"999","COUNTRY_CODE":"US","MEAN_MOTION_DDOT":"0.0000000000000","CENTER_NAME":"EARTH","OBJECT_NAME":"STARLINK-3855","EPHEMERIS_TYPE":"0","OBJECT_TYPE":"PAYLOAD","TLE_LINE2":"2 52474  53.2174 205.7713 0001606  45.1510  66.3041 15.32844631  1301","TLE_LINE1":"1 52474U 22049Z   22211.91667824 -.01067494  00000-0 -36171-1 0  9992","DECAY_DATE":null,"ECCENTRICITY":"0.00016060","NORAD_CAT_ID":"52474","SEMIMAJOR_AXIS":"6845.467","OBJECT_ID":"2022-049Z","BSTAR":"-0.03617100000000","EPOCH":"2022-07-30T22:00:00.999936","MEAN_ANOMALY":"66.3041","INCLINATION":"53.2174","RCS_SIZE":"LARGE","SITE":"AFETR","REF_FRAME":"TEME"},{"REF_FRAME":"TEME","SITE":"AFETR","RCS_SIZE":"LARGE","MEAN_ANOMALY":"255.0144","INCLINATION":"53.2149","NORAD_CAT_ID":"52475","SEMIMAJOR_AXIS":"6917.979","OBJECT_ID":"2022-049AA","EPOCH":"2022-07-30T22:00:00.999936","BSTAR":"0.00261220000000","TLE_LINE1":"1 52475U 22049AA  22211.91667824  .00041494  00000-0  26122-2 0  9998","ECCENTRICITY":"0.00021590","DECAY_DATE":null,"TLE_LINE2":"2 52475  53.2149 214.8196 0002159  51.9313 255.0144 15.08807861  1308","OBJECT_NAME":"STARLINK-3882","EPHEMERIS_TYPE":"0","OBJECT_TYPE":"PAYLOAD","CENTER_NAME":"EARTH","MEAN_MOTION_DDOT":"0.0000000000000","COUNTRY_CODE":"US","CLASSIFICATION_TYPE":"U","LAUNCH_DATE":"2022-05-06","ELEMENT_SET_NO":"999","APOAPSIS":"541.337","RA_OF_ASC_NODE":"214.8196","REV_AT_EPOCH":"130","GP_ID":"209229755","FILE":"3525638","MEAN_MOTION":"15.08807861","PERIOD":"95.440","MEAN_ELEMENT_THEORY":"SGP4","MEAN_MOTION_DOT":"0.00041494","PERIAPSIS":"538.350","ARG_OF_PERICENTER":"51.9313","TIME_SYSTEM":"UTC"},{"OBJECT_ID":"2022-049AB","BSTAR":"-0.03585300000000","EPOCH":"2022-07-30T22:00:00.999936","NORAD_CAT_ID":"52476","SEMIMAJOR_AXIS":"6844.607","DECAY_DATE":null,"ECCENTRICITY":"0.00017240","TLE_LINE1":"1 52476U 22049AB  22211.91667824 -.01067843  00000-0 -35853-1 0  9998","RCS_SIZE":"LARGE","SITE":"AFETR","INCLINATION":"53.2174","MEAN_ANOMALY":"79.7481","REF_FRAME":"TEME","PERIOD":"93.925","MEAN_ELEMENT_THEORY":"SGP4","MEAN_MOTION_DOT":"-0.01067843","GP_ID":"209230267","REV_AT_EPOCH":"130","FILE":"3525638","MEAN_MOTION":"15.33133502","TIME_SYSTEM":"UTC","PERIAPSIS":"465.292","ARG_OF_PERICENTER":"40.6867","ELEMENT_SET_NO":"999","LAUNCH_DATE":"2022-05-06","CLASSIFICATION_TYPE":"U","APOAPSIS":"467.652","RA_OF_ASC_NODE":"205.7792","CENTER_NAME":"EARTH","COUNTRY_CODE":"US","MEAN_MOTION_DDOT":"0.0000000000000","TLE_LINE2":"2 52476  53.2174 205.7792 0001724  40.6867  79.7481 15.33133502  1301","OBJECT_TYPE":"PAYLOAD","OBJECT_NAME":"STARLINK-3835","EPHEMERIS_TYPE":"0"},{"MEAN_ANOMALY":"64.9802","INCLINATION":"53.2174","SITE":"AFETR","RCS_SIZE":"LARGE","REF_FRAME":"TEME","TLE_LINE1":"1 52477U 22049AC  22211.91667824 -.01067004  00000-0 -36491-1 0  9997","ECCENTRICITY":"0.00017680","DECAY_DATE":null,"NORAD_CAT_ID":"52477","SEMIMAJOR_AXIS":"6846.346","OBJECT_ID":"2022-049AC","EPOCH":"2022-07-30T22:00:00.999936","BSTAR":"-0.03649100000000","MEAN_MOTION_DDOT":"0.0000000000000","COUNTRY_CODE":"US","CENTER_NAME":"EARTH","OBJECT_NAME":"STARLINK-3860","EPHEMERIS_TYPE":"0","OBJECT_TYPE":"PAYLOAD","TLE_LINE2":"2 52477  53.2174 205.7629 0001768  37.5958  64.9802 15.32549448  1307","PERIAPSIS":"467.001","ARG_OF_PERICENTER":"37.5958","TIME_SYSTEM":"UTC","MEAN_MOTION":"15.32549448","GP_ID":"209229627","FILE":"3525638","REV_AT_EPOCH":"130","PERIOD":"93.961","MEAN_MOTION_DOT":"-0.01067004","MEAN_ELEMENT_THEORY":"SGP4","APOAPSIS":"469.421","RA_OF_ASC_NODE":"205.7629","LAUNCH_DATE":"2022-05-06","CLASSIFICATION_TYPE":"U","ELEMENT_SET_NO":"999"}];
